CAPELLA-11 (ACADIA-1)   
1 57693U 23126A   26198.00479735  .00001969  00000+0  25504-3 0  9998
2 57693  53.0067  55.4245 0002338 134.2199 225.8973 14.85083670156553
CAPELLA-14 (ACADIA-4)   
1 59444U 24066C   26197.42798986  .00005130  00000+0  34717-3 0  9995
2 59444  45.6012 101.4049 0002747  73.4558 286.6628 15.07675032116908
CAPELLA-13 (ACADIA-3)   
1 60419U 24142A   26198.26412342  .00002069  00000+0  25090-3 0  9998
2 60419  53.0049 286.2827 0001364  88.9090 271.2047 14.87653014104889
CAPELLA-15 (ACADIA-5)   
1 60544U 24149CE  26197.75646668  .00002154  00000+0  21575-3 0  9996
2 60544  97.6760 269.9186 0002980 339.4741  20.6358 14.92399963104269
CAPELLA-17 (ACADIA-7)   
1 64583U 25135BH  26197.92370817  .00003317  00000+0  33573-3 0  9991
2 64583  97.7711 311.1077 0004149 241.8139 118.2661 14.91631015 58285
CAPELLA-16 (ACADIA-6)   
1 65318U 25188D   26198.16338972  .00003506  00000+0  33353-3 0  9995
2 65318  97.7378 272.8671 0005853 129.5350 230.6388 14.94063838 48395
CAPELLA-19 (ACADIA-9)   
1 67384U 26004X   26197.94858492  .00002594  00000+0  29814-3 0  9990
2 67384  97.8006 195.7842 0001511  94.9732 265.1656 14.86648217 27690
CAPELLA-18 (ACADIA-8)   
1 67385U 26004Y   26197.95862086  .00002444  00000+0  28134-3 0  9994
2 67385  97.8015 195.9481 0001375  93.5071 266.6302 14.86638656 27703
CAPELLA-20 (ACADIA-10)  
1 68485U 26067BX  26197.87552258  .00002928  00000+0  29664-3 0  9999
2 68485  97.7590 155.6990 0001218 146.9551 213.1744 14.91693185 16150
