{"fetched_at":"2026-07-17T17:38:06.786Z","source":"https://celestrak.org/NORAD/elements/gp.php?NAME=CAPELLA&FORMAT=JSON","constellation":"capella","records":[{"OBJECT_NAME":"CAPELLA-11 (ACADIA-1)","OBJECT_ID":"2023-126A","EPOCH":"2026-07-17T00:06:54.491040","CLASSIFICATION_TYPE":"U","MEAN_MOTION":14.8508367,"ECCENTRICITY":0.00023385,"INCLINATION":53.0067,"RA_OF_ASC_NODE":55.4245,"ARG_OF_PERICENTER":134.2199,"MEAN_ANOMALY":225.8973,"EPHEMERIS_TYPE":0,"NORAD_CAT_ID":57693,"ELEMENT_SET_NO":999,"REV_AT_EPOCH":15655,"BSTAR":0.00025504119,"MEAN_MOTION_DOT":0.00001969,"MEAN_MOTION_DDOT":0},{"OBJECT_NAME":"CAPELLA-14 (ACADIA-4)","OBJECT_ID":"2024-066C","EPOCH":"2026-07-16T10:16:18.323904","CLASSIFICATION_TYPE":"U","MEAN_MOTION":15.07675032,"ECCENTRICITY":0.0002747,"INCLINATION":45.6012,"RA_OF_ASC_NODE":101.4049,"ARG_OF_PERICENTER":73.4558,"MEAN_ANOMALY":286.6628,"EPHEMERIS_TYPE":0,"NORAD_CAT_ID":59444,"ELEMENT_SET_NO":999,"REV_AT_EPOCH":11690,"BSTAR":0.00034717,"MEAN_MOTION_DOT":0.0000513,"MEAN_MOTION_DDOT":0},{"OBJECT_NAME":"CAPELLA-13 (ACADIA-3)","OBJECT_ID":"2024-142A","EPOCH":"2026-07-17T06:20:20.263488","CLASSIFICATION_TYPE":"U","MEAN_MOTION":14.87653014,"ECCENTRICITY":0.00013643,"INCLINATION":53.0049,"RA_OF_ASC_NODE":286.2827,"ARG_OF_PERICENTER":88.909,"MEAN_ANOMALY":271.2047,"EPHEMERIS_TYPE":0,"NORAD_CAT_ID":60419,"ELEMENT_SET_NO":999,"REV_AT_EPOCH":10488,"BSTAR":0.00025090198,"MEAN_MOTION_DOT":0.00002069,"MEAN_MOTION_DDOT":0},{"OBJECT_NAME":"CAPELLA-15 (ACADIA-5)","OBJECT_ID":"2024-149CE","EPOCH":"2026-07-16T18:09:18.721152","CLASSIFICATION_TYPE":"U","MEAN_MOTION":14.92399963,"ECCENTRICITY":0.00029809,"INCLINATION":97.676,"RA_OF_ASC_NODE":269.9186,"ARG_OF_PERICENTER":339.4741,"MEAN_ANOMALY":20.6358,"EPHEMERIS_TYPE":0,"NORAD_CAT_ID":60544,"ELEMENT_SET_NO":999,"REV_AT_EPOCH":10426,"BSTAR":0.00021575264,"MEAN_MOTION_DOT":0.00002154,"MEAN_MOTION_DDOT":0},{"OBJECT_NAME":"CAPELLA-17 (ACADIA-7)","OBJECT_ID":"2025-135BH","EPOCH":"2026-07-16T22:10:08.385888","CLASSIFICATION_TYPE":"U","MEAN_MOTION":14.91631015,"ECCENTRICITY":0.00041493,"INCLINATION":97.7711,"RA_OF_ASC_NODE":311.1077,"ARG_OF_PERICENTER":241.8139,"MEAN_ANOMALY":118.2661,"EPHEMERIS_TYPE":0,"NORAD_CAT_ID":64583,"ELEMENT_SET_NO":999,"REV_AT_EPOCH":5828,"BSTAR":0.00033572736,"MEAN_MOTION_DOT":0.00003317,"MEAN_MOTION_DDOT":0},{"OBJECT_NAME":"CAPELLA-16 (ACADIA-6)","OBJECT_ID":"2025-188D","EPOCH":"2026-07-17T03:55:16.871808","CLASSIFICATION_TYPE":"U","MEAN_MOTION":14.94063838,"ECCENTRICITY":0.00058533,"INCLINATION":97.7378,"RA_OF_ASC_NODE":272.8671,"ARG_OF_PERICENTER":129.535,"MEAN_ANOMALY":230.6388,"EPHEMERIS_TYPE":0,"NORAD_CAT_ID":65318,"ELEMENT_SET_NO":999,"REV_AT_EPOCH":4839,"BSTAR":0.00033353228,"MEAN_MOTION_DOT":0.00003506,"MEAN_MOTION_DDOT":0},{"OBJECT_NAME":"CAPELLA-19 (ACADIA-9)","OBJECT_ID":"2026-004X","EPOCH":"2026-07-16T22:45:57.737088","CLASSIFICATION_TYPE":"U","MEAN_MOTION":14.86648217,"ECCENTRICITY":0.00015113,"INCLINATION":97.8006,"RA_OF_ASC_NODE":195.7842,"ARG_OF_PERICENTER":94.9732,"MEAN_ANOMALY":265.1656,"EPHEMERIS_TYPE":0,"NORAD_CAT_ID":67384,"ELEMENT_SET_NO":999,"REV_AT_EPOCH":2769,"BSTAR":0.00029814453,"MEAN_MOTION_DOT":0.00002594,"MEAN_MOTION_DDOT":0},{"OBJECT_NAME":"CAPELLA-18 (ACADIA-8)","OBJECT_ID":"2026-004Y","EPOCH":"2026-07-16T23:00:24.842304","CLASSIFICATION_TYPE":"U","MEAN_MOTION":14.86638656,"ECCENTRICITY":0.00013758,"INCLINATION":97.8015,"RA_OF_ASC_NODE":195.9481,"ARG_OF_PERICENTER":93.5071,"MEAN_ANOMALY":266.6302,"EPHEMERIS_TYPE":0,"NORAD_CAT_ID":67385,"ELEMENT_SET_NO":999,"REV_AT_EPOCH":2770,"BSTAR":0.00028133838,"MEAN_MOTION_DOT":0.00002444,"MEAN_MOTION_DDOT":0},{"OBJECT_NAME":"CAPELLA-20 (ACADIA-10)","OBJECT_ID":"2026-067BX","EPOCH":"2026-07-16T21:00:45.150912","CLASSIFICATION_TYPE":"U","MEAN_MOTION":14.91693185,"ECCENTRICITY":0.00012187,"INCLINATION":97.759,"RA_OF_ASC_NODE":155.699,"ARG_OF_PERICENTER":146.9551,"MEAN_ANOMALY":213.1744,"EPHEMERIS_TYPE":0,"NORAD_CAT_ID":68485,"ELEMENT_SET_NO":999,"REV_AT_EPOCH":1615,"BSTAR":0.00029663788,"MEAN_MOTION_DOT":0.00002928,"MEAN_MOTION_DDOT":0}]}
